[{"OBJECT_NAME":"ALOS (DAICHI)","OBJECT_ID":"2006-002A","EPOCH":"2026-04-07T10:25:58.199232","MEAN_MOTION":14.69905621,"ECCENTRICITY":0.00012906,"INCLINATION":98.1264,"RA_OF_ASC_NODE":53.2568,"ARG_OF_PERICENTER":115.7213,"MEAN_ANOMALY":244.4126,"EPHEMERIS_TYPE":0,"CLASSIFICATION_TYPE":"U","NORAD_CAT_ID":28931,"ELEMENT_SET_NO":999,"REV_AT_EPOCH":7770,"BSTAR":0.00025359312,"MEAN_MOTION_DOT":1.468e-5,"MEAN_MOTION_DDOT":0},{"OBJECT_NAME":"H-2A R/B","OBJECT_ID":"2006-002B","EPOCH":"2026-04-07T08:57:10.354464","MEAN_MOTION":15.17120164,"ECCENTRICITY":0.00524607,"INCLINATION":98.2469,"RA_OF_ASC_NODE":246.8869,"ARG_OF_PERICENTER":143.4304,"MEAN_ANOMALY":217.0527,"EPHEMERIS_TYPE":0,"CLASSIFICATION_TYPE":"U","NORAD_CAT_ID":28932,"ELEMENT_SET_NO":999,"REV_AT_EPOCH":9878,"BSTAR":0.00061687611,"MEAN_MOTION_DOT":0.00012604,"MEAN_MOTION_DDOT":0},{"OBJECT_NAME":"RESURS-DK 1","OBJECT_ID":"2006-021A","EPOCH":"2026-04-07T11:54:11.097792","MEAN_MOTION":15.12926526,"ECCENTRICITY":0.00021787,"INCLINATION":69.9324,"RA_OF_ASC_NODE":162.504,"ARG_OF_PERICENTER":27.1211,"MEAN_ANOMALY":333.0069,"EPHEMERIS_TYPE":0,"CLASSIFICATION_TYPE":"U","NORAD_CAT_ID":29228,"ELEMENT_SET_NO":999,"REV_AT_EPOCH":9188,"BSTAR":0.00012716531,"MEAN_MOTION_DOT":2.138e-5,"MEAN_MOTION_DDOT":0},{"OBJECT_NAME":"CZ-4B R/B","OBJECT_ID":"2006-046C","EPOCH":"2026-04-07T13:34:07.142016","MEAN_MOTION":15.17221113,"ECCENTRICITY":0.0033599,"INCLINATION":97.5532,"RA_OF_ASC_NODE":142.3932,"ARG_OF_PERICENTER":164.9018,"MEAN_ANOMALY":195.3226,"EPHEMERIS_TYPE":0,"CLASSIFICATION_TYPE":"U","NORAD_CAT_ID":29507,"ELEMENT_SET_NO":999,"REV_AT_EPOCH":6442,"BSTAR":0.00021018299,"MEAN_MOTION_DOT":4.169e-5,"MEAN_MOTION_DDOT":0},{"OBJECT_NAME":"CZ-2C R/B","OBJECT_ID":"2007-010B","EPOCH":"2026-04-07T12:57:40.000320","MEAN_MOTION":14.20257593,"ECCENTRICITY":0.00585078,"INCLINATION":98.4008,"RA_OF_ASC_NODE":209.3769,"ARG_OF_PERICENTER":209.3108,"MEAN_ANOMALY":150.4783,"EPHEMERIS_TYPE":0,"CLASSIFICATION_TYPE":"U","NORAD_CAT_ID":31114,"ELEMENT_SET_NO":999,"REV_AT_EPOCH":98381,"BSTAR":9.429482e-5,"MEAN_MOTION_DOT":1.64e-6,"MEAN_MOTION_DDOT":0},{"OBJECT_NAME":"COSMO-SKYMED 1","OBJECT_ID":"2007-023A","EPOCH":"2026-04-07T14:43:47.307072","MEAN_MOTION":14.96766733,"ECCENTRICITY":0.00017658,"INCLINATION":97.8884,"RA_OF_ASC_NODE":288.8823,"ARG_OF_PERICENTER":95.5963,"MEAN_ANOMALY":264.546,"EPHEMERIS_TYPE":0,"CLASSIFICATION_TYPE":"U","NORAD_CAT_ID":31598,"ELEMENT_SET_NO":999,"REV_AT_EPOCH":1923,"BSTAR":0.0003730998,"MEAN_MOTION_DOT":4.208e-5,"MEAN_MOTION_DDOT":0},{"OBJECT_NAME":"COSMOS 2428","OBJECT_ID":"2007-029A","EPOCH":"2026-04-07T11:45:23.913504","MEAN_MOTION":14.12948923,"ECCENTRICITY":0.00096806,"INCLINATION":70.9417,"RA_OF_ASC_NODE":142.897,"ARG_OF_PERICENTER":247.0831,"MEAN_ANOMALY":112.9269,"EPHEMERIS_TYPE":0,"CLASSIFICATION_TYPE":"U","NORAD_CAT_ID":31792,"ELEMENT_SET_NO":999,"REV_AT_EPOCH":96816,"BSTAR":-1.3615352e-5,"MEAN_MOTION_DOT":-7.3e-7,"MEAN_MOTION_DDOT":0},{"OBJECT_NAME":"SL-16 R/B","OBJECT_ID":"2007-029B","EPOCH":"2026-04-07T11:59:56.932800","MEAN_MOTION":14.14843483,"ECCENTRICITY":0.00029164,"INCLINATION":70.9735,"RA_OF_ASC_NODE":111.824,"ARG_OF_PERICENTER":275.632,"MEAN_ANOMALY":246.4466,"EPHEMERIS_TYPE":0,"CLASSIFICATION_TYPE":"U","NORAD_CAT_ID":31793,"ELEMENT_SET_NO":999,"REV_AT_EPOCH":96944,"BSTAR":-6.962601e-5,"MEAN_MOTION_DOT":-1.82e-6,"MEAN_MOTION_DDOT":0},{"OBJECT_NAME":"H-2A R/B","OBJECT_ID":"2012-025E","EPOCH":"2026-04-07T12:04:56.091936","MEAN_MOTION":14.95371447,"ECCENTRICITY":0.00435593,"INCLINATION":98.4775,"RA_OF_ASC_NODE":66.8703,"ARG_OF_PERICENTER":217.3217,"MEAN_ANOMALY":142.4973,"EPHEMERIS_TYPE":0,"CLASSIFICATION_TYPE":"U","NORAD_CAT_ID":38341,"ELEMENT_SET_NO":999,"REV_AT_EPOCH":75252,"BSTAR":0.00021801569,"MEAN_MOTION_DOT":2.381e-5,"MEAN_MOTION_DDOT":0},{"OBJECT_NAME":"SHIJIAN-16 (SJ-16)","OBJECT_ID":"2013-057A","EPOCH":"2026-04-07T14:07:45.700032","MEAN_MOTION":14.92449335,"ECCENTRICITY":0.00154352,"INCLINATION":74.9704,"RA_OF_ASC_NODE":130.378,"ARG_OF_PERICENTER":37.8295,"MEAN_ANOMALY":322.3975,"EPHEMERIS_TYPE":0,"CLASSIFICATION_TYPE":"U","NORAD_CAT_ID":39358,"ELEMENT_SET_NO":999,"REV_AT_EPOCH":67581,"BSTAR":0.00012475103,"MEAN_MOTION_DOT":1.253e-5,"MEAN_MOTION_DDOT":0},{"OBJECT_NAME":"ALOS-2","OBJECT_ID":"2014-029A","EPOCH":"2026-04-07T12:43:48.631008","MEAN_MOTION":14.79459327,"ECCENTRICITY":0.0001762,"INCLINATION":97.9196,"RA_OF_ASC_NODE":195.7083,"ARG_OF_PERICENTER":93.2091,"MEAN_ANOMALY":266.9322,"EPHEMERIS_TYPE":0,"CLASSIFICATION_TYPE":"U","NORAD_CAT_ID":39766,"ELEMENT_SET_NO":999,"REV_AT_EPOCH":64113,"BSTAR":1.4196e-5,"MEAN_MOTION_DOT":5.5e-7,"MEAN_MOTION_DDOT":0},{"OBJECT_NAME":"ASTRO-H (HITOMI)","OBJECT_ID":"2016-012A","EPOCH":"2026-04-07T12:27:33.822144","MEAN_MOTION":15.10198284,"ECCENTRICITY":0.00096917,"INCLINATION":30.9983,"RA_OF_ASC_NODE":170.4764,"ARG_OF_PERICENTER":261.4275,"MEAN_ANOMALY":98.5265,"EPHEMERIS_TYPE":0,"CLASSIFICATION_TYPE":"U","NORAD_CAT_ID":41337,"ELEMENT_SET_NO":999,"REV_AT_EPOCH":55659,"BSTAR":0.00016067065,"MEAN_MOTION_DOT":2.788e-5,"MEAN_MOTION_DDOT":0}]
