{"fetched_at":"2026-04-08T05:47:42Z","count":4640,"tles":[{"name":"SL-16 R/B","line1":"1 31793U 07029B   26097.49996450 -.00000182  00000+0 -69626-4 0  9996","line2":"2 31793  70.9735 111.8240 0002916 275.6320 246.4466 14.14843483969440","category":"Other"},{"name":"H-2A R/B","line1":"1 28932U 06002B   26097.37303651  .00012604  00000+0  61688-3 0  9998","line2":"2 28932  98.2469 246.8869 0052460 143.4304 217.0527 15.17120164 98787","category":"Other"},{"name":"CZ-2C R/B","line1":"1 31114U 07010B   26097.54004630  .00000164  00000+0  94295-4 0  9997","line2":"2 31114  98.4008 209.3769 0058507 209.3108 150.4783 14.20257593983810","category":"Other"},{"name":"SHIJIAN-16 (SJ-16)","line1":"1 39358U 13057A   26097.58872338  .00001253  00000+0  12475-3 0  9994","line2":"2 39358  74.9704 130.3780 0015435  37.8295 322.3975 14.92449335675817","category":"Other"},{"name":"H-2A R/B","line1":"1 38341U 12025E   26097.50342699  .00002381  00000+0  21802-3 0  9990","line2":"2 38341  98.4775  66.8703 0043559 217.3217 142.4973 14.95371447752526","category":"Other"},{"name":"RESURS-DK 1","line1":"1 29228U 06021A   26097.49596178  .00002138  00000+0  12717-3 0  9999","line2":"2 29228  69.9324 162.5040 0002178  27.1211 333.0069 15.12926526 91887","category":"Other"},{"name":"CZ-4B R/B","line1":"1 29507U 06046C   26097.56536044  .00004169  00000+0  21018-3 0  9990","line2":"2 29507  97.5532 142.3932 0033599 164.9018 195.3226 15.17221113 64426","category":"Other"},{"name":"ALOS (DAICHI)","line1":"1 28931U 06002A   26097.43470138  .00001468  00000+0  25359-3 0  9990","line2":"2 28931  98.1264  53.2568 0001290 115.7213 244.4126 14.69905621 77703","category":"Other"},{"name":"ASTRO-H (HITOMI)","line1":"1 41337U 16012A   26097.51914146  .00002788  00000+0  16067-3 0  9990","line2":"2 41337  30.9983 170.4764 0009691 261.4275  98.5265 15.10198284556597","category":"Other"},{"name":"COSMOS 2428","line1":"1 31792U 07029A   26097.48986011 -.00000073  00000+0 -13615-4 0  9992","line2":"2 31792  70.9417 142.8970 0009680 247.0831 112.9269 14.12948923968164","category":"Other"},{"name":"COSMO-SKYMED 1","line1":"1 31598U 07023A   26097.61374198  .00004208  00000+0  37310-3 0  9991","line2":"2 31598  97.8884 288.8823 0001765  95.5963 264.5460 14.96766733 19231","category":"Other"},{"name":"ALOS-2","line1":"1 39766U 14029A   26097.53042397  .00000055  00000+0  14196-4 0  9998","line2":"2 39766  97.9196 195.7083 0001762  93.2091 266.9322 14.79459327641133","category":"Other"}]}